ONEWEB-0108             
1 48076U 21025AL  24078.49038229  .00000210  00000+0  53949-3 0  9998
2 48076  87.8926 123.6047 0002198  93.7285 266.4095 13.13469767145913
ONEWEB-0169             
1 48077U 21025AM  24078.14122814 -.00000207  00000+0 -60310-3 0  9993
2 48077  87.8930 123.6812 0002256  96.0533 264.0853 13.13468702144526
ONEWEB-0176             
1 48210U 21031A   24078.47704881  .00000160  00000+0  39783-3 0  9991
2 48210  87.8891  93.0312 0001905  91.8756 268.2592 13.14502668140495
ONEWEB-0184             
1 48211U 21031B   24078.45007953 -.00000184  00000+0 -53140-3 0  9997
2 48211  87.8890  93.0239 0000933  77.7646 282.3588 13.14501098140469
ONEWEB-0179             
1 48212U 21031C   24078.49607746  .00000249  00000+0  63752-3 0  9998
2 48212  87.8894  93.0136 0001938  95.2047 264.9304 13.14502664140514
ONEWEB-0180             
1 48213U 21031D   24078.45325892 -.00000146  00000+0 -42835-3 0  9991
2 48213  87.8891  93.0232 0001892 100.3824 259.7519 13.14503392140394
ONEWEB-0218             
1 48214U 21031E   24078.47545482  .00000147  00000+0  36233-3 0  9997
2 48214  87.8889  93.0205 0000799 103.5866 256.5353 13.14501210140554
ONEWEB-0209             
1 48215U 21031F   24078.46435220 -.00000043  00000+0 -15182-3 0  9992
2 48215  87.8891  93.0545 0002006  97.4379 262.6979 13.14501235140557
