<?xml version="1.0" encoding="UTF-8"?>
<ndm xmlns:xsi="http://www.w3.org/2001/XMLSchema-instance" xsi:noNamespaceSchemaLocation="https://sanaregistry.org/r/ndmxml_unqualified/ndmxml-2.0.0-master-2.0.xsd">
<omm id="CCSDS_OMM_VERS" version="2.0">
<header><CREATION_DATE/><ORIGINATOR/></header><body><segment><metadata><OBJECT_NAME>ONEWEB-0108</OBJECT_NAME><OBJECT_ID>2021-025AL</OBJECT_ID><CENTER_NAME>EARTH</CENTER_NAME><REF_FRAME>TEME</REF_FRAME><TIME_SYSTEM>UTC</TIME_SYSTEM><MEAN_ELEMENT_THEORY>SGP4</MEAN_ELEMENT_THEORY></metadata><data><meanElements><EPOCH>2024-03-18T11:46:09.029856</EPOCH><MEAN_MOTION>13.13469767</MEAN_MOTION><ECCENTRICITY>.0002198</ECCENTRICITY><INCLINATION>87.8926</INCLINATION><RA_OF_ASC_NODE>123.6047</RA_OF_ASC_NODE><ARG_OF_PERICENTER>93.7285</ARG_OF_PERICENTER><MEAN_ANOMALY>266.4095</MEAN_ANOMALY></meanElements><tleParameters><EPHEMERIS_TYPE>0</EPHEMERIS_TYPE><CLASSIFICATION_TYPE>U</CLASSIFICATION_TYPE><NORAD_CAT_ID>48076</NORAD_CAT_ID><ELEMENT_SET_NO>999</ELEMENT_SET_NO><REV_AT_EPOCH>14591</REV_AT_EPOCH><BSTAR>.53949E-3</BSTAR><MEAN_MOTION_DOT>.21E-5</MEAN_MOTION_DOT><MEAN_MOTION_DDOT>0</MEAN_MOTION_DDOT></tleParameters></data></segment></body></omm>
<omm id="CCSDS_OMM_VERS" version="2.0">
<header><CREATION_DATE/><ORIGINATOR/></header><body><segment><metadata><OBJECT_NAME>ONEWEB-0169</OBJECT_NAME><OBJECT_ID>2021-025AM</OBJECT_ID><CENTER_NAME>EARTH</CENTER_NAME><REF_FRAME>TEME</REF_FRAME><TIME_SYSTEM>UTC</TIME_SYSTEM><MEAN_ELEMENT_THEORY>SGP4</MEAN_ELEMENT_THEORY></metadata><data><meanElements><EPOCH>2024-03-18T03:23:22.111296</EPOCH><MEAN_MOTION>13.13468702</MEAN_MOTION><ECCENTRICITY>.0002256</ECCENTRICITY><INCLINATION>87.8930</INCLINATION><RA_OF_ASC_NODE>123.6812</RA_OF_ASC_NODE><ARG_OF_PERICENTER>96.0533</ARG_OF_PERICENTER><MEAN_ANOMALY>264.0853</MEAN_ANOMALY></meanElements><tleParameters><EPHEMERIS_TYPE>0</EPHEMERIS_TYPE><CLASSIFICATION_TYPE>U</CLASSIFICATION_TYPE><NORAD_CAT_ID>48077</NORAD_CAT_ID><ELEMENT_SET_NO>999</ELEMENT_SET_NO><REV_AT_EPOCH>14452</REV_AT_EPOCH><BSTAR>-.6031E-3</BSTAR><MEAN_MOTION_DOT>-.207E-5</MEAN_MOTION_DOT><MEAN_MOTION_DDOT>0</MEAN_MOTION_DDOT></tleParameters></data></segment></body></omm>
<omm id="CCSDS_OMM_VERS" version="2.0">
<header><CREATION_DATE/><ORIGINATOR/></header><body><segment><metadata><OBJECT_NAME>ONEWEB-0176</OBJECT_NAME><OBJECT_ID>2021-031A</OBJECT_ID><CENTER_NAME>EARTH</CENTER_NAME><REF_FRAME>TEME</REF_FRAME><TIME_SYSTEM>UTC</TIME_SYSTEM><MEAN_ELEMENT_THEORY>SGP4</MEAN_ELEMENT_THEORY></metadata><data><meanElements><EPOCH>2024-03-18T11:26:57.017184</EPOCH><MEAN_MOTION>13.14502668</MEAN_MOTION><ECCENTRICITY>.0001905</ECCENTRICITY><INCLINATION>87.8891</INCLINATION><RA_OF_ASC_NODE>93.0312</RA_OF_ASC_NODE><ARG_OF_PERICENTER>91.8756</ARG_OF_PERICENTER><MEAN_ANOMALY>268.2592</MEAN_ANOMALY></meanElements><tleParameters><EPHEMERIS_TYPE>0</EPHEMERIS_TYPE><CLASSIFICATION_TYPE>U</CLASSIFICATION_TYPE><NORAD_CAT_ID>48210</NORAD_CAT_ID><ELEMENT_SET_NO>999</ELEMENT_SET_NO><REV_AT_EPOCH>14049</REV_AT_EPOCH><BSTAR>.39783E-3</BSTAR><MEAN_MOTION_DOT>.16E-5</MEAN_MOTION_DOT><MEAN_MOTION_DDOT>0</MEAN_MOTION_DDOT></tleParameters></data></segment></body></omm>
<omm id="CCSDS_OMM_VERS" version="2.0">
<header><CREATION_DATE/><ORIGINATOR/></header><body><segment><metadata><OBJECT_NAME>ONEWEB-0184</OBJECT_NAME><OBJECT_ID>2021-031B</OBJECT_ID><CENTER_NAME>EARTH</CENTER_NAME><REF_FRAME>TEME</REF_FRAME><TIME_SYSTEM>UTC</TIME_SYSTEM><MEAN_ELEMENT_THEORY>SGP4</MEAN_ELEMENT_THEORY></metadata><data><meanElements><EPOCH>2024-03-18T10:48:06.871392</EPOCH><MEAN_MOTION>13.14501098</MEAN_MOTION><ECCENTRICITY>.0000933</ECCENTRICITY><INCLINATION>87.8890</INCLINATION><RA_OF_ASC_NODE>93.0239</RA_OF_ASC_NODE><ARG_OF_PERICENTER>77.7646</ARG_OF_PERICENTER><MEAN_ANOMALY>282.3588</MEAN_ANOMALY></meanElements><tleParameters><EPHEMERIS_TYPE>0</EPHEMERIS_TYPE><CLASSIFICATION_TYPE>U</CLASSIFICATION_TYPE><NORAD_CAT_ID>48211</NORAD_CAT_ID><ELEMENT_SET_NO>999</ELEMENT_SET_NO><REV_AT_EPOCH>14046</REV_AT_EPOCH><BSTAR>-.5314E-3</BSTAR><MEAN_MOTION_DOT>-.184E-5</MEAN_MOTION_DOT><MEAN_MOTION_DDOT>0</MEAN_MOTION_DDOT></tleParameters></data></segment></body></omm>
<omm id="CCSDS_OMM_VERS" version="2.0">
<header><CREATION_DATE/><ORIGINATOR/></header><body><segment><metadata><OBJECT_NAME>ONEWEB-0179</OBJECT_NAME><OBJECT_ID>2021-031C</OBJECT_ID><CENTER_NAME>EARTH</CENTER_NAME><REF_FRAME>TEME</REF_FRAME><TIME_SYSTEM>UTC</TIME_SYSTEM><MEAN_ELEMENT_THEORY>SGP4</MEAN_ELEMENT_THEORY></metadata><data><meanElements><EPOCH>2024-03-18T11:54:21.092544</EPOCH><MEAN_MOTION>13.14502664</MEAN_MOTION><ECCENTRICITY>.0001938</ECCENTRICITY><INCLINATION>87.8894</INCLINATION><RA_OF_ASC_NODE>93.0136</RA_OF_ASC_NODE><ARG_OF_PERICENTER>95.2047</ARG_OF_PERICENTER><MEAN_ANOMALY>264.9304</MEAN_ANOMALY></meanElements><tleParameters><EPHEMERIS_TYPE>0</EPHEMERIS_TYPE><CLASSIFICATION_TYPE>U</CLASSIFICATION_TYPE><NORAD_CAT_ID>48212</NORAD_CAT_ID><ELEMENT_SET_NO>999</ELEMENT_SET_NO><REV_AT_EPOCH>14051</REV_AT_EPOCH><BSTAR>.63752E-3</BSTAR><MEAN_MOTION_DOT>.249E-5</MEAN_MOTION_DOT><MEAN_MOTION_DDOT>0</MEAN_MOTION_DDOT></tleParameters></data></segment></body></omm>
<omm id="CCSDS_OMM_VERS" version="2.0">
<header><CREATION_DATE/><ORIGINATOR/></header><body><segment><metadata><OBJECT_NAME>ONEWEB-0180</OBJECT_NAME><OBJECT_ID>2021-031D</OBJECT_ID><CENTER_NAME>EARTH</CENTER_NAME><REF_FRAME>TEME</REF_FRAME><TIME_SYSTEM>UTC</TIME_SYSTEM><MEAN_ELEMENT_THEORY>SGP4</MEAN_ELEMENT_THEORY></metadata><data><meanElements><EPOCH>2024-03-18T10:52:41.570688</EPOCH><MEAN_MOTION>13.14503392</MEAN_MOTION><ECCENTRICITY>.0001892</ECCENTRICITY><INCLINATION>87.8891</INCLINATION><RA_OF_ASC_NODE>93.0232</RA_OF_ASC_NODE><ARG_OF_PERICENTER>100.3824</ARG_OF_PERICENTER><MEAN_ANOMALY>259.7519</MEAN_ANOMALY></meanElements><tleParameters><EPHEMERIS_TYPE>0</EPHEMERIS_TYPE><CLASSIFICATION_TYPE>U</CLASSIFICATION_TYPE><NORAD_CAT_ID>48213</NORAD_CAT_ID><ELEMENT_SET_NO>999</ELEMENT_SET_NO><REV_AT_EPOCH>14039</REV_AT_EPOCH><BSTAR>-.42835E-3</BSTAR><MEAN_MOTION_DOT>-.146E-5</MEAN_MOTION_DOT><MEAN_MOTION_DDOT>0</MEAN_MOTION_DDOT></tleParameters></data></segment></body></omm>
<omm id="CCSDS_OMM_VERS" version="2.0">
<header><CREATION_DATE/><ORIGINATOR/></header><body><segment><metadata><OBJECT_NAME>ONEWEB-0218</OBJECT_NAME><OBJECT_ID>2021-031E</OBJECT_ID><CENTER_NAME>EARTH</CENTER_NAME><REF_FRAME>TEME</REF_FRAME><TIME_SYSTEM>UTC</TIME_SYSTEM><MEAN_ELEMENT_THEORY>SGP4</MEAN_ELEMENT_THEORY></metadata><data><meanElements><EPOCH>2024-03-18T11:24:39.296448</EPOCH><MEAN_MOTION>13.14501210</MEAN_MOTION><ECCENTRICITY>.0000799</ECCENTRICITY><INCLINATION>87.8889</INCLINATION><RA_OF_ASC_NODE>93.0205</RA_OF_ASC_NODE><ARG_OF_PERICENTER>103.5866</ARG_OF_PERICENTER><MEAN_ANOMALY>256.5353</MEAN_ANOMALY></meanElements><tleParameters><EPHEMERIS_TYPE>0</EPHEMERIS_TYPE><CLASSIFICATION_TYPE>U</CLASSIFICATION_TYPE><NORAD_CAT_ID>48214</NORAD_CAT_ID><ELEMENT_SET_NO>999</ELEMENT_SET_NO><REV_AT_EPOCH>14055</REV_AT_EPOCH><BSTAR>.36233E-3</BSTAR><MEAN_MOTION_DOT>.147E-5</MEAN_MOTION_DOT><MEAN_MOTION_DDOT>0</MEAN_MOTION_DDOT></tleParameters></data></segment></body></omm>
<omm id="CCSDS_OMM_VERS" version="2.0">
<header><CREATION_DATE/><ORIGINATOR/></header><body><segment><metadata><OBJECT_NAME>ONEWEB-0209</OBJECT_NAME><OBJECT_ID>2021-031F</OBJECT_ID><CENTER_NAME>EARTH</CENTER_NAME><REF_FRAME>TEME</REF_FRAME><TIME_SYSTEM>UTC</TIME_SYSTEM><MEAN_ELEMENT_THEORY>SGP4</MEAN_ELEMENT_THEORY></metadata><data><meanElements><EPOCH>2024-03-18T11:08:40.030080</EPOCH><MEAN_MOTION>13.14501235</MEAN_MOTION><ECCENTRICITY>.0002006</ECCENTRICITY><INCLINATION>87.8891</INCLINATION><RA_OF_ASC_NODE>93.0545</RA_OF_ASC_NODE><ARG_OF_PERICENTER>97.4379</ARG_OF_PERICENTER><MEAN_ANOMALY>262.6979</MEAN_ANOMALY></meanElements><tleParameters><EPHEMERIS_TYPE>0</EPHEMERIS_TYPE><CLASSIFICATION_TYPE>U</CLASSIFICATION_TYPE><NORAD_CAT_ID>48215</NORAD_CAT_ID><ELEMENT_SET_NO>999</ELEMENT_SET_NO><REV_AT_EPOCH>14055</REV_AT_EPOCH><BSTAR>-.15182E-3</BSTAR><MEAN_MOTION_DOT>-.43E-6</MEAN_MOTION_DOT><MEAN_MOTION_DDOT>0</MEAN_MOTION_DDOT></tleParameters></data></segment></body></omm>

</ndm>
